[
    {
        "Altitude(m)": 559886.4840391383,
        "Argument of Periapsis(deg)": 0.033114955553567506,
        "Eccentricity": 0.0,
        "Inclination(deg)": 53.0,
        "Latitude(deg)": 53.089118751556065,
        "Longitude(deg)": -65.14951953679513,
        "Mean Anomaly(deg)": -267.72373566211206,
        "RAAN(deg)": 304.9507168426401,
        "Satellite Name": "Starlink Shell 1 1344",
        "Satellite Number": 1344,
        "Semi-Major Axis(m)": 6931778.249405717,
        "Time(s)": 950
    },
    {
        "Altitude(m)": 559877.9214643813,
        "Argument of Periapsis(deg)": 0.03346353403307874,
        "Eccentricity": 0.0,
        "Inclination(deg)": 53.0,
        "Latitude(deg)": 53.05107138303101,
        "Longitude(deg)": -64.15234670721165,
        "Mean Anomaly(deg)": -267.09690445855534,
        "RAAN(deg)": 304.9501980725626,
        "Satellite Name": "Starlink Shell 1 1344",
        "Satellite Number": 1344,
        "Semi-Major Axis(m)": 6931778.249405717,
        "Time(s)": 960
    },
    {
        "Altitude(m)": 559867.3034088298,
        "Argument of Periapsis(deg)": 0.03381211251258998,
        "Eccentricity": 0.0,
        "Inclination(deg)": 53.0,
        "Latitude(deg)": 53.00398156758878,
        "Longitude(deg)": -63.15721680219514,
        "Mean Anomaly(deg)": -266.47007325499857,
        "RAAN(deg)": 304.94967930248515,
        "Satellite Name": "Starlink Shell 1 1344",
        "Satellite Number": 1344,
        "Semi-Major Axis(m)": 6931778.249405717,
        "Time(s)": 970
    },
    {
        "Altitude(m)": 559854.6362802703,
        "Argument of Periapsis(deg)": 0.034160690992101214,
        "Eccentricity": 0.0,
        "Inclination(deg)": 53.0,
        "Latitude(deg)": 52.94788411188831,
        "Longitude(deg)": -62.16455349006548,
        "Mean Anomaly(deg)": -265.8432420514419,
        "RAAN(deg)": 304.9491605324077,
        "Satellite Name": "Starlink Shell 1 1344",
        "Satellite Number": 1344,
        "Semi-Major Axis(m)": 6931778.249405717,
        "Time(s)": 980
    },
    {
        "Altitude(m)": 559839.9277176085,
        "Argument of Periapsis(deg)": 0.034509269471612446,
        "Eccentricity": 0.0,
        "Inclination(deg)": 53.0,
        "Latitude(deg)": 52.88282025160537,
        "Longitude(deg)": -61.17477267293525,
        "Mean Anomaly(deg)": -265.2164108478852,
        "RAAN(deg)": 304.9486417623302,
        "Satellite Name": "Starlink Shell 1 1344",
        "Satellite Number": 1344,
        "Semi-Major Axis(m)": 6931778.249405717,
        "Time(s)": 990
    }
]